[
  {
    "CCSDS_OMM_VERS": "3.0",
    "COMMENT": "GENERATED VIA SPACE-TRACK.ORG API",
    "CREATION_DATE": "2026-02-19T18:36:16",
    "ORIGINATOR": "18 SPCS",
    "OBJECT_NAME": "VSP RF B1",
    "OBJECT_ID": "2024-043AR",
    "CENTER_NAME": "EARTH",
    "REF_FRAME": "TEME",
    "TIME_SYSTEM": "UTC",
    "MEAN_ELEMENT_THEORY": "SGP4",
    "EPOCH": "2026-02-19T15:45:48.903264",
    "MEAN_MOTION": "15.26459067",
    "ECCENTRICITY": "0.00098860",
    "INCLINATION": "97.5417",
    "RA_OF_ASC_NODE": "186.2352",
    "ARG_OF_PERICENTER": "293.0580",
    "MEAN_ANOMALY": "66.9616",
    "EPHEMERIS_TYPE": "0",
    "CLASSIFICATION_TYPE": "U",
    "NORAD_CAT_ID": "59137",
    "ELEMENT_SET_NO": "999",
    "REV_AT_EPOCH": "10908",
    "BSTAR": "0.00001321400000",
    "MEAN_MOTION_DOT": "0.00000269",
    "MEAN_MOTION_DDOT": "0.0000000000000",
    "SEMIMAJOR_AXIS": "6864.545",
    "PERIOD": "94.336",
    "APOAPSIS": "493.196",
    "PERIAPSIS": "479.623",
    "OBJECT_TYPE": "PAYLOAD",
    "RCS_SIZE": "MEDIUM",
    "COUNTRY_CODE": "BEL",
    "LAUNCH_DATE": "2024-03-04",
    "SITE": "AFWTR",
    "DECAY_DATE": null,
    "FILE": "5039983",
    "GP_ID": "313187963",
    "TLE_LINE0": "0 VSP RF B1",
    "TLE_LINE1": "1 59137U 24043AR  26050.65681601  .00000269  00000-0  13214-4 0  9996",
    "TLE_LINE2": "2 59137  97.5417 186.2352 0009886 293.0580  66.9616 15.26459067109082"
  },
  {
    "CCSDS_OMM_VERS": "3.0",
    "COMMENT": "GENERATED VIA SPACE-TRACK.ORG API",
    "CREATION_DATE": "2026-02-19T17:59:09",
    "ORIGINATOR": "18 SPCS",
    "OBJECT_NAME": "MOZHAYETS 4",
    "OBJECT_ID": "2003-042A",
    "CENTER_NAME": "EARTH",
    "REF_FRAME": "TEME",
    "TIME_SYSTEM": "UTC",
    "MEAN_ELEMENT_THEORY": "SGP4",
    "EPOCH": "2026-02-19T15:44:48.182208",
    "MEAN_MOTION": "14.73197077",
    "ECCENTRICITY": "0.00102255",
    "INCLINATION": "98.3409",
    "RA_OF_ASC_NODE": "231.7175",
    "ARG_OF_PERICENTER": "283.4099",
    "MEAN_ANOMALY": "147.0441",
    "EPHEMERIS_TYPE": "0",
    "CLASSIFICATION_TYPE": "U",
    "NORAD_CAT_ID": "27939",
    "ELEMENT_SET_NO": "999",
    "REV_AT_EPOCH": "19824",
    "BSTAR": "0.00014783800000",
    "MEAN_MOTION_DOT": "0.00000901",
    "MEAN_MOTION_DDOT": "0.0000000000000",
    "SEMIMAJOR_AXIS": "7029.017",
    "PERIOD": "97.747",
    "APOAPSIS": "658.070",
    "PERIAPSIS": "643.695",
    "OBJECT_TYPE": "PAYLOAD",
    "RCS_SIZE": "MEDIUM",
    "COUNTRY_CODE": "CIS",
    "LAUNCH_DATE": "2003-09-27",
    "SITE": "PKMTR",
    "DECAY_DATE": null,
    "FILE": "5039972",
    "GP_ID": "313163329",
    "TLE_LINE0": "0 MOZHAYETS 4",
    "TLE_LINE1": "1 27939U 03042A   26050.65611322  .00000901  00000-0  14784-3 0  9995",
    "TLE_LINE2": "2 27939  98.3409 231.7175 0010225 283.4099 147.0441 14.73197077198247"
  },
  {
    "CCSDS_OMM_VERS": "3.0",
    "COMMENT": "GENERATED VIA SPACE-TRACK.ORG API",
    "CREATION_DATE": "2026-02-19T19:16:27",
    "ORIGINATOR": "18 SPCS",
    "OBJECT_NAME": "SHIYAN 24C 01",
    "OBJECT_ID": "2023-206A",
    "CENTER_NAME": "EARTH",
    "REF_FRAME": "TEME",
    "TIME_SYSTEM": "UTC",
    "MEAN_ELEMENT_THEORY": "SGP4",
    "EPOCH": "2026-02-19T15:44:32.501472",
    "MEAN_MOTION": "14.97797705",
    "ECCENTRICITY": "0.00023920",
    "INCLINATION": "97.3930",
    "RA_OF_ASC_NODE": "24.5088",
    "ARG_OF_PERICENTER": "191.2406",
    "MEAN_ANOMALY": "168.8764",
    "EPHEMERIS_TYPE": "0",
    "CLASSIFICATION_TYPE": "U",
    "NORAD_CAT_ID": "58650",
    "ELEMENT_SET_NO": "999",
    "REV_AT_EPOCH": "11771",
    "BSTAR": "0.00017934000000",
    "MEAN_MOTION_DOT": "0.00002052",
    "MEAN_MOTION_DDOT": "0.0000000000000",
    "SEMIMAJOR_AXIS": "6951.839",
    "PERIOD": "96.141",
    "APOAPSIS": "575.367",
    "PERIAPSIS": "572.042",
    "OBJECT_TYPE": "PAYLOAD",
    "RCS_SIZE": "MEDIUM",
    "COUNTRY_CODE": "PRC",
    "LAUNCH_DATE": "2023-12-25",
    "SITE": "SCSLA",
    "DECAY_DATE": null,
    "FILE": "5039997",
    "GP_ID": "313188005",
    "TLE_LINE0": "0 SHIYAN 24C 01",
    "TLE_LINE1": "1 58650U 23206A   26050.65593173  .00002052  00000-0  17934-3 0  9995",
    "TLE_LINE2": "2 58650  97.3930  24.5088 0002392 191.2406 168.8764 14.97797705117716"
  },
  {
    "CCSDS_OMM_VERS": "3.0",
    "COMMENT": "GENERATED VIA SPACE-TRACK.ORG API",
    "CREATION_DATE": "2026-02-19T17:59:09",
    "ORIGINATOR": "18 SPCS",
    "OBJECT_NAME": "GONETS D1 8",
    "OBJECT_ID": "2001-058E",
    "CENTER_NAME": "EARTH",
    "REF_FRAME": "TEME",
    "TIME_SYSTEM": "UTC",
    "MEAN_ELEMENT_THEORY": "SGP4",
    "EPOCH": "2026-02-19T15:44:27.801312",
    "MEAN_MOTION": "12.61554069",
    "ECCENTRICITY": "0.00023390",
    "INCLINATION": "82.5403",
    "RA_OF_ASC_NODE": "288.0242",
    "ARG_OF_PERICENTER": "134.3295",
    "MEAN_ANOMALY": "225.7988",
    "EPHEMERIS_TYPE": "0",
    "CLASSIFICATION_TYPE": "U",
    "NORAD_CAT_ID": "27059",
    "ELEMENT_SET_NO": "999",
    "REV_AT_EPOCH": "11175",
    "BSTAR": "0.00115897470000",
    "MEAN_MOTION_DOT": "0.00000216",
    "MEAN_MOTION_DDOT": "0.0000000000000",
    "SEMIMAJOR_AXIS": "7794.674",
    "PERIOD": "114.145",
    "APOAPSIS": "1418.362",
    "PERIAPSIS": "1414.715",
    "OBJECT_TYPE": "PAYLOAD",
    "RCS_SIZE": "MEDIUM",
    "COUNTRY_CODE": "CIS",
    "LAUNCH_DATE": "2001-12-28",
    "SITE": "PKMTR",
    "DECAY_DATE": null,
    "FILE": "5039972",
    "GP_ID": "313162672",
    "TLE_LINE0": "0 GONETS D1 8",
    "TLE_LINE1": "1 27059U 01058E   26050.65587733  .00000216  00000-0  11590-2 0  9991",
    "TLE_LINE2": "2 27059  82.5403 288.0242 0002339 134.3295 225.7988 12.61554069111752"
  },
  {
    "CCSDS_OMM_VERS": "3.0",
    "COMMENT": "GENERATED VIA SPACE-TRACK.ORG API",
    "CREATION_DATE": "2026-02-19T17:59:09",
    "ORIGINATOR": "18 SPCS",
    "OBJECT_NAME": "AIST 2",
    "OBJECT_ID": "2013-015D",
    "CENTER_NAME": "EARTH",
    "REF_FRAME": "TEME",
    "TIME_SYSTEM": "UTC",
    "MEAN_ELEMENT_THEORY": "SGP4",
    "EPOCH": "2026-02-19T15:44:08.731104",
    "MEAN_MOTION": "15.24777744",
    "ECCENTRICITY": "0.00251570",
    "INCLINATION": "64.8687",
    "RA_OF_ASC_NODE": "281.2424",
    "ARG_OF_PERICENTER": "249.5078",
    "MEAN_ANOMALY": "110.3351",
    "EPHEMERIS_TYPE": "0",
    "CLASSIFICATION_TYPE": "U",
    "NORAD_CAT_ID": "39133",
    "ELEMENT_SET_NO": "999",
    "REV_AT_EPOCH": "70597",
    "BSTAR": "0.00021138517000",
    "MEAN_MOTION_DOT": "0.00005100",
    "MEAN_MOTION_DDOT": "0.0000000000000",
    "SEMIMAJOR_AXIS": "6869.590",
    "PERIOD": "94.440",
    "APOAPSIS": "508.737",
    "PERIAPSIS": "474.173",
    "OBJECT_TYPE": "PAYLOAD",
    "RCS_SIZE": "MEDIUM",
    "COUNTRY_CODE": "CIS",
    "LAUNCH_DATE": "2013-04-19",
    "SITE": "TTMTR",
    "DECAY_DATE": null,
    "FILE": "5039972",
    "GP_ID": "313168940",
    "TLE_LINE0": "0 AIST 2",
    "TLE_LINE1": "1 39133U 13015D   26050.65565661  .00005100  00000-0  21139-3 0  9997",
    "TLE_LINE2": "2 39133  64.8687 281.2424 0025157 249.5078 110.3351 15.24777744705978"
  },
  {
    "CCSDS_OMM_VERS": "3.0",
    "COMMENT": "GENERATED VIA SPACE-TRACK.ORG API",
    "CREATION_DATE": "2026-02-19T17:59:09",
    "ORIGINATOR": "18 SPCS",
    "OBJECT_NAME": "COSMOS 2502",
    "OBJECT_ID": "2014-086A",
    "CENTER_NAME": "EARTH",
    "REF_FRAME": "TEME",
    "TIME_SYSTEM": "UTC",
    "MEAN_ELEMENT_THEORY": "SGP4",
    "EPOCH": "2026-02-19T15:44:07.612224",
    "MEAN_MOTION": "13.97808525",
    "ECCENTRICITY": "0.00076081",
    "INCLINATION": "67.1536",
    "RA_OF_ASC_NODE": "293.4116",
    "ARG_OF_PERICENTER": "283.4986",
    "MEAN_ANOMALY": "76.5251",
    "EPHEMERIS_TYPE": "0",
    "CLASSIFICATION_TYPE": "U",
    "NORAD_CAT_ID": "40358",
    "ELEMENT_SET_NO": "999",
    "REV_AT_EPOCH": "56752",
    "BSTAR": "0.00044560826000",
    "MEAN_MOTION_DOT": "0.00000556",
    "MEAN_MOTION_DDOT": "0.0000000000000",
    "SEMIMAJOR_AXIS": "7279.531",
    "PERIOD": "103.018",
    "APOAPSIS": "906.934",
    "PERIAPSIS": "895.857",
    "OBJECT_TYPE": "PAYLOAD",
    "RCS_SIZE": "LARGE",
    "COUNTRY_CODE": "CIS",
    "LAUNCH_DATE": "2014-12-25",
    "SITE": "PKMTR",
    "DECAY_DATE": null,
    "FILE": "5039972",
    "GP_ID": "313169822",
    "TLE_LINE0": "0 COSMOS 2502",
    "TLE_LINE1": "1 40358U 14086A   26050.65564366  .00000556  00000-0  44561-3 0  9992",
    "TLE_LINE2": "2 40358  67.1536 293.4116 0007608 283.4986  76.5251 13.97808525567526"
  },
  {
    "CCSDS_OMM_VERS": "3.0",
    "COMMENT": "GENERATED VIA SPACE-TRACK.ORG API",
    "CREATION_DATE": "2026-02-19T17:59:09",
    "ORIGINATOR": "18 SPCS",
    "OBJECT_NAME": "LONGJIANG 3",
    "OBJECT_ID": "2023-082A",
    "CENTER_NAME": "EARTH",
    "REF_FRAME": "TEME",
    "TIME_SYSTEM": "UTC",
    "MEAN_ELEMENT_THEORY": "SGP4",
    "EPOCH": "2026-02-19T15:43:55.690752",
    "MEAN_MOTION": "15.37118362",
    "ECCENTRICITY": "0.00068561",
    "INCLINATION": "49.1091",
    "RA_OF_ASC_NODE": "290.0782",
    "ARG_OF_PERICENTER": "222.3541",
    "MEAN_ANOMALY": "137.6878",
    "EPHEMERIS_TYPE": "0",
    "CLASSIFICATION_TYPE": "U",
    "NORAD_CAT_ID": "56874",
    "ELEMENT_SET_NO": "999",
    "REV_AT_EPOCH": "15125",
    "BSTAR": "0.00053236369000",
    "MEAN_MOTION_DOT": "0.00019367",
    "MEAN_MOTION_DDOT": "0.0000000000000",
    "SEMIMAJOR_AXIS": "6832.773",
    "PERIOD": "93.682",
    "APOAPSIS": "459.322",
    "PERIAPSIS": "449.953",
    "OBJECT_TYPE": "PAYLOAD",
    "RCS_SIZE": "MEDIUM",
    "COUNTRY_CODE": "PRC",
    "LAUNCH_DATE": "2023-06-09",
    "SITE": "JSC",
    "DECAY_DATE": null,
    "FILE": "5039972",
    "GP_ID": "313178182",
    "TLE_LINE0": "0 LONGJIANG 3",
    "TLE_LINE1": "1 56874U 23082A   26050.65550568  .00019367  00000-0  53236-3 0  9996",
    "TLE_LINE2": "2 56874  49.1091 290.0782 0006856 222.3541 137.6878 15.37118362151259"
  }
]